[{"OBJECT_NAME":"SAUDISAT 5B","OBJECT_ID":"2018-102C","EPOCH":"2026-03-09T22:59:17.457216","MEAN_MOTION":15.27248504,"ECCENTRICITY":0.00120577,"INCLINATION":97.3281,"RA_OF_ASC_NODE":135.3629,"ARG_OF_PERICENTER":124.0958,"MEAN_ANOMALY":236.1427,"EPHEMERIS_TYPE":0,"CLASSIFICATION_TYPE":"U","NORAD_CAT_ID":43833,"ELEMENT_SET_NO":999,"REV_AT_EPOCH":40064,"BSTAR":0.00024926623,"MEAN_MOTION_DOT":6.596e-5,"MEAN_MOTION_DDOT":0},{"OBJECT_NAME":"STARLINK-6368","OBJECT_ID":"2023-094S","EPOCH":"2026-03-09T22:00:01.999584","MEAN_MOTION":15.12976529,"ECCENTRICITY":0.0001762,"INCLINATION":43.0008,"RA_OF_ASC_NODE":28.4054,"ARG_OF_PERICENTER":256.3705,"MEAN_ANOMALY":50.16,"EPHEMERIS_TYPE":0,"CLASSIFICATION_TYPE":"U","NORAD_CAT_ID":57234,"ELEMENT_SET_NO":999,"REV_AT_EPOCH":567,"BSTAR":0.069359819,"MEAN_MOTION_DOT":0.01355316,"MEAN_MOTION_DDOT":0}]
